{
  "type": "FeatureCollection",
  "features": [
    {
      "type": "Feature",
      "properties": {
        "norad_id": 35073,
        "name": "COSMOS 2251 DEB",
        "group": "cosmos-2251-debris",
        "lat": -32.8644177563465,
        "lon": 140.60683113798126,
        "alt_km": 576.2242395218464,
        "timestamp": "2025-12-22T20:43:46.244071+00:00",
        "meta_object_name": "COSMOS 2251 DEB",
        "meta_object_id": "1993-036AJC",
        "meta_epoch": "2025-12-21T14:59:25.763136",
        "meta_mean_motion": 15.01208163,
        "meta_eccentricity": 0.0011308,
        "meta_inclination": 74.0017,
        "meta_ra_of_asc_node": 312.4522,
        "meta_arg_of_pericenter": 54.373,
        "meta_mean_anomaly": 305.8509,
        "meta_ephemeris_type": 0,
        "meta_classification_type": "U",
        "meta_norad_cat_id": 35073,
        "meta_element_set_no": 999,
        "meta_rev_at_epoch": 67612,
        "meta_bstar": 0.0026084,
        "meta_mean_motion_dot": 0.00033655,
        "meta_mean_motion_ddot": 0,
        "tle_line1": "1 35073U 93036AJC 25355.62460374  .00033655  00000+0  26084-2 0  9994",
        "tle_line2": "2 35073  74.0017 312.4522 0011308  54.3730 305.8509 15.01208163676122"
      },
      "geometry": {
        "type": "Point",
        "coordinates": [
          140.60683113798126,
          -32.8644177563465
        ]
      }
    },
    {
      "type": "Feature",
      "properties": {
        "norad_id": 35284,
        "name": "COSMOS 2251 DEB",
        "group": "cosmos-2251-debris",
        "lat": 0.09455745559448014,
        "lon": 65.75770104874519,
        "alt_km": 776.0637456446439,
        "timestamp": "2025-12-22T20:43:46.244081+00:00",
        "meta_object_name": "COSMOS 2251 DEB",
        "meta_object_id": "1993-036AJN",
        "meta_epoch": "2025-12-20T11:57:49.053888",
        "meta_mean_motion": 14.38325797,
        "meta_eccentricity": 0.00170776,
        "meta_inclination": 74.0488,
        "meta_ra_of_asc_node": 250.1381,
        "meta_arg_of_pericenter": 325.4276,
        "meta_mean_anomaly": 212.2402,
        "meta_ephemeris_type": 0,
        "meta_classification_type": "U",
        "meta_norad_cat_id": 35284,
        "meta_element_set_no": 999,
        "meta_rev_at_epoch": 65637,
        "meta_bstar": 0.00012056337,
        "meta_mean_motion_dot": 3.41e-06,
        "meta_mean_motion_ddot": 0,
        "tle_line1": "1 35284U 93036AJN 25354.49848442  .00000341  00000+0  12056-3 0  9999",
        "tle_line2": "2 35284  74.0488 250.1381 0017077 325.4276 212.2402 14.38325797656375"
      },
      "geometry": {
        "type": "Point",
        "coordinates": [
          65.75770104874519,
          0.09455745559448014
        ]
      }
    },
    {
      "type": "Feature",
      "properties": {
        "norad_id": 35287,
        "name": "COSMOS 2251 DEB",
        "group": "cosmos-2251-debris",
        "lat": -68.46573336920818,
        "lon": -148.99363694376186,
        "alt_km": 772.4021840722562,
        "timestamp": "2025-12-22T20:43:46.244091+00:00",
        "meta_object_name": "COSMOS 2251 DEB",
        "meta_object_id": "1993-036AJR",
        "meta_epoch": "2025-12-22T11:53:54.676608",
        "meta_mean_motion": 14.36384319,
        "meta_eccentricity": 0.00179964,
        "meta_inclination": 74.0302,
        "meta_ra_of_asc_node": 258.2089,
        "meta_arg_of_pericenter": 352.7565,
        "meta_mean_anomaly": 190.154,
        "meta_ephemeris_type": 0,
        "meta_classification_type": "U",
        "meta_norad_cat_id": 35287,
        "meta_element_set_no": 999,
        "meta_rev_at_epoch": 87032,
        "meta_bstar": 0.00012587961,
        "meta_mean_motion_dot": 3.43e-06,
        "meta_mean_motion_ddot": 0,
        "tle_line1": "1 35287U 93036AJR 25356.49577172  .00000343  00000+0  12588-3 0  9995",
        "tle_line2": "2 35287  74.0302 258.2089 0017996 352.7565 190.1540 14.36384319870324"
      },
      "geometry": {
        "type": "Point",
        "coordinates": [
          -148.99363694376186,
          -68.46573336920818
        ]
      }
    },
    {
      "type": "Feature",
      "properties": {
        "norad_id": 35288,
        "name": "COSMOS 2251 DEB",
        "group": "cosmos-2251-debris",
        "lat": 52.75575091239179,
        "lon": 17.831911765070476,
        "alt_km": 697.3119594266664,
        "timestamp": "2025-12-22T20:43:46.244101+00:00",
        "meta_object_name": "COSMOS 2251 DEB",
        "meta_object_id": "1993-036AJS",
        "meta_epoch": "2025-12-21T10:04:09.683328",
        "meta_mean_motion": 14.65541798,
        "meta_eccentricity": 0.00391307,
        "meta_inclination": 73.9498,
        "meta_ra_of_asc_node": 358.3745,
        "meta_arg_of_pericenter": 230.729,
        "meta_mean_anomaly": 129.0405,
        "meta_ephemeris_type": 0,
        "meta_classification_type": "U",
        "meta_norad_cat_id": 35288,
        "meta_element_set_no": 999,
        "meta_rev_at_epoch": 88005,
        "meta_bstar": 0.00079112613,
        "meta_mean_motion_dot": 4.31e-05,
        "meta_mean_motion_ddot": 0,
        "tle_line1": "1 35288U 93036AJS 25355.41955652  .00004310  00000+0  79113-3 0  9995",
        "tle_line2": "2 35288  73.9498 358.3745 0039130 230.7290 129.0405 14.65541798880054"
      },
      "geometry": {
        "type": "Point",
        "coordinates": [
          17.831911765070476,
          52.75575091239179
        ]
      }
    },
    {
      "type": "Feature",
      "properties": {
        "norad_id": 35290,
        "name": "COSMOS 2251 DEB",
        "group": "cosmos-2251-debris",
        "lat": 17.64686301803795,
        "lon": -145.7948895506237,
        "alt_km": 626.4751929968579,
        "timestamp": "2025-12-22T20:43:46.244111+00:00",
        "meta_object_name": "COSMOS 2251 DEB",
        "meta_object_id": "1993-036AJU",
        "meta_epoch": "2025-12-20T03:08:10.287168",
        "meta_mean_motion": 14.80565596,
        "meta_eccentricity": 0.00016036,
        "meta_inclination": 74.0049,
        "meta_ra_of_asc_node": 44.8368,
        "meta_arg_of_pericenter": 190.188,
        "meta_mean_anomaly": 169.9265,
        "meta_ephemeris_type": 0,
        "meta_classification_type": "U",
        "meta_norad_cat_id": 35290,
        "meta_element_set_no": 999,
        "meta_rev_at_epoch": 88067,
        "meta_bstar": 0.0010027753,
        "meta_mean_motion_dot": 7.664e-05,
        "meta_mean_motion_ddot": 0,
        "tle_line1": "1 35290U 93036AJU 25354.13067462  .00007664  00000+0  10028-2 0  9993",
        "tle_line2": "2 35290  74.0049  44.8368 0001603 190.1880 169.9265 14.80565596880671"
      },
      "geometry": {
        "type": "Point",
        "coordinates": [
          -145.7948895506237,
          17.64686301803795
        ]
      }
    },
    {
      "type": "Feature",
      "properties": {
        "norad_id": 35432,
        "name": "COSMOS 2251 DEB",
        "group": "cosmos-2251-debris",
        "lat": 13.040958789032766,
        "lon": 170.3777769951049,
        "alt_km": 501.622839545872,
        "timestamp": "2025-12-22T20:43:46.244122+00:00",
        "meta_object_name": "COSMOS 2251 DEB",
        "meta_object_id": "1993-036AKA",
        "meta_epoch": "2025-12-22T10:33:02.372256",
        "meta_mean_motion": 15.24271254,
        "meta_eccentricity": 0.00124874,
        "meta_inclination": 74.0191,
        "meta_ra_of_asc_node": 355.0792,
        "meta_arg_of_pericenter": 325.0494,
        "meta_mean_anomaly": 34.9884,
        "meta_ephemeris_type": 0,
        "meta_classification_type": "U",
        "meta_norad_cat_id": 35432,
        "meta_element_set_no": 999,
        "meta_rev_at_epoch": 87651,
        "meta_bstar": 0.0024812627,
        "meta_mean_motion_dot": 0.00061205,
        "meta_mean_motion_ddot": 0,
        "tle_line1": "1 35432U 93036AKA 25356.43961079  .00061205  00000+0  24813-2 0  9991",
        "tle_line2": "2 35432  74.0191 355.0792 0012487 325.0494  34.9884 15.24271254876517"
      },
      "geometry": {
        "type": "Point",
        "coordinates": [
          170.3777769951049,
          13.040958789032766
        ]
      }
    },
    {
      "type": "Feature",
      "properties": {
        "norad_id": 35433,
        "name": "COSMOS 2251 DEB",
        "group": "cosmos-2251-debris",
        "lat": -15.851387157047398,
        "lon": -44.75880237983757,
        "alt_km": 764.3111138142822,
        "timestamp": "2025-12-22T20:43:46.244132+00:00",
        "meta_object_name": "COSMOS 2251 DEB",
        "meta_object_id": "1993-036AKB",
        "meta_epoch": "2025-12-10T18:27:52.031808",
        "meta_mean_motion": 14.34742553,
        "meta_eccentricity": 0.00254013,
        "meta_inclination": 74.0339,
        "meta_ra_of_asc_node": 342.0559,
        "meta_arg_of_pericenter": 37.4572,
        "meta_mean_anomaly": 142.4072,
        "meta_ephemeris_type": 0,
        "meta_classification_type": "U",
        "meta_norad_cat_id": 35433,
        "meta_element_set_no": 999,
        "meta_rev_at_epoch": 86552,
        "meta_bstar": 0.00041847558,
        "meta_mean_motion_dot": 1.164e-05,
        "meta_mean_motion_ddot": 0,
        "tle_line1": "1 35433U 93036AKB 25344.76935222  .00001164  00000+0  41848-3 0  9992",
        "tle_line2": "2 35433  74.0339 342.0559 0025401  37.4572 142.4072 14.34742553865528"
      },
      "geometry": {
        "type": "Point",
        "coordinates": [
          -44.75880237983757,
          -15.851387157047398
        ]
      }
    }
  ]
}